SENTINEL-6              
1 46984U 20086A   24220.83985275 -.00000033  00000+0  12163-3 0  9996
2 46984  66.0411 103.9899 0007805 269.8734  90.1387 12.80930340173446
